NORAD_CAT_ID,OBJECT_NAME,OBJECT_TYPE,EPOCH,MEAN_MOTION,ECCENTRICITY,INCLINATION,RA_OF_ASC_NODE,ARG_OF_PERICENTER,MEAN_ANOMALY,BSTAR,MEAN_MOTION_DOT,MEAN_MOTION_DDOT,TLE_LINE0,TLE_LINE1,TLE_LINE2,SEMIMAJOR_AXIS,PERIOD,APOGEE,PERIGEE,DECAYED
50168.0,STARLINK-3296,PAYLOAD,2022-05-01 22:00:01,15.08817875,0.0001861,53.2158,88.8522,54.0516,343.3411,0.00095773,0.00014978,0.0,0 STARLINK-3296,1 50168U 21125N   22121.91668981  .00014978  00000-0  95773-3 0  9990,2 50168  53.2158  88.8522 0001861  54.0516 343.3411 15.08817875  3570,6917.948,95.439,541.1,538.526,0.0
50168.0,STARLINK-3296,PAYLOAD,2022-05-02 06:00:00,15.08814155,0.0002053,53.216,87.3577,49.0528,359.8544,0.0011943,0.00018757,0.0,0 STARLINK-3296,1 50168U 21125N   22122.25001157  .00018757  00000-0  11943-2 0  9999,2 50168  53.2160  87.3577 0002053  49.0528 359.8544 15.08814155 21036,6917.959,95.439,541.245,538.404,0.0
50168.0,STARLINK-3296,PAYLOAD,2022-05-02 14:00:01,15.08843005,0.0001961,53.2161,85.8602,50.2506,10.225,-0.0014293,-0.00022966,0.0,0 STARLINK-3296,1 50168U 21125N   22122.58334491 -.00022966  00000-0 -14293-2 0  9995,2 50168  53.2161  85.8602 0001961  50.2506  10.2250 15.08843005  3607,6917.871,95.437,541.0930000000002,538.38,0.0
50168.0,STARLINK-3296,PAYLOAD,2022-05-02 22:00:01,15.08839427,0.0001926,53.2166,84.3634,55.0093,17.1163,0.0010378,0.00016267,0.0,0 STARLINK-3296,1 50168U 21125N   22122.91668981  .00016267  00000-0  10378-2 0  9991,2 50168  53.2166  84.3634 0001926  55.0093  17.1163 15.08839427  3574,6917.882,95.438,541.08,538.415,0.0
50168.0,STARLINK-3296,PAYLOAD,2022-05-03 14:00:01,15.08864124,0.0001922,53.2168,81.3712,51.1315,44.1376,-0.003424,-0.00054407,0.0,0 STARLINK-3296,1 50168U 21125N   22123.58334491 -.00054407  00000-0 -34240-2 0  9995,2 50168  53.2168  81.3712 0001922  51.1315  44.1376 15.08864124 21231,6917.807,95.436,541.001,538.342,0.0
50168.0,STARLINK-3296,PAYLOAD,2022-05-03 22:00:00,15.08841239,0.0001855,53.2171,79.8745,54.9361,51.9298,0.00065803,0.000102,0.0,0 STARLINK-3296,1 50168U 21125N   22123.91667824  .00010200  00000-0  65803-3 0  9992,2 50168  53.2171  79.8745 0001855  54.9361  51.9298 15.08841239  3602,6917.877,95.437,541.025,538.4580000000002,0.0
50168.0,STARLINK-3296,PAYLOAD,2022-05-04 06:00:02,15.08831897,0.0001994,53.2172,78.3799,49.0959,69.4378,0.0016989999999999,0.00026849,0.0,0 STARLINK-3296,1 50168U 21125N   22124.25002315  .00026849  00000-0  16990-2 0  9996,2 50168  53.2172  78.3799 0001994  49.0959  69.4378 15.08831897 21330,6917.905,95.438,541.15,538.391,0.0
50168.0,STARLINK-3296,PAYLOAD,2022-05-04 14:00:01,15.08860499,0.00018,53.217,76.8823,51.4886,78.586,-0.0028956,-0.00046103,0.0,0 STARLINK-3296,1 50168U 21125N   22124.58334491 -.00046103  00000-0 -28956-2 0  9997,2 50168  53.2170  76.8823 0001800  51.4886  78.5860 15.08860499  3608,6917.818,95.436,540.928,538.438,0.0
50168.0,STARLINK-3296,PAYLOAD,2022-05-04 20:00:01,15.08824901,0.0001728,53.2171,75.7595,54.9872,353.856,0.0026241,0.00041705,0.0,0 STARLINK-3296,1 50168U 21125N   22124.83335648  .00041705  00000-0  26241-2 0  9996,2 50168  53.2171  75.7595 0001728  54.9872 353.8560 15.08824901 21429,6917.927,95.439,540.987,538.596,0.0
50168.0,STARLINK-3296,PAYLOAD,2022-05-04 22:00:01,15.08847044,0.0001740999999999,53.2173,75.3857,54.8538,86.8806,0.00036346,5.502e-05,0.0,0 STARLINK-3296,1 50168U 21125N   22124.91668981  .00005502  00000-0  36346-3 0  9997,2 50168  53.2173  75.3857 0001741  54.8538  86.8806 15.08847044  3600,6917.859,95.437,540.928,538.519,0.0
50168.0,STARLINK-3296,PAYLOAD,2022-05-05 14:00:01,15.08836247,0.0001694,53.2169,72.3934,51.2234,113.6584,-0.00084621,-0.00013729,0.0,0 STARLINK-3296,1 50168U 21125N   22125.58334491 -.00013729  00000-0 -84621-3 0  9998,2 50168  53.2169  72.3934 0001694  51.2234 113.6584 15.08836247  3569,6917.892,95.438,540.929,538.585,0.0
50168.0,STARLINK-3296,PAYLOAD,2022-05-05 16:00:00,15.0882135,0.0001652,53.2168,72.01899999999998,52.6476,205.1363,0.00073141,0.00011366,0.0,0 STARLINK-3296,1 50168U 21125N   22125.66667824  .00011366  00000-0  73141-3 0  9994,2 50168  53.2168  72.0190 0001652  52.6476 205.1363 15.08821350 21545,6917.937,95.439,540.945,538.66,0.0
50168.0,STARLINK-3296,PAYLOAD,2022-05-05 22:00:00,15.088363500000002,0.0001729,53.217,70.8972,56.2183,120.2437,-0.0019718,-0.00031529,0.0,0 STARLINK-3296,1 50168U 21125N   22125.91667824 -.00031529  00000-0 -19718-2 0  9996,2 50168  53.2170  70.8972 0001729  56.2183 120.2437 15.08836350  3569,6917.892,95.438,540.953,538.56,0.0
50168.0,STARLINK-3296,PAYLOAD,2022-05-06 08:00:01,15.08803754,0.0001892,53.2162,69.0283,50.2405,230.6915,0.0023287,0.00036931,0.0,0 STARLINK-3296,1 50168U 21125N   22126.33334491  .00036931  00000-0  23287-2 0  9990,2 50168  53.2162  69.0283 0001892  50.2405 230.6915 15.08803754 21645,6917.991,95.44,541.165,538.547,0.0
50168.0,STARLINK-3296,PAYLOAD,2022-05-06 14:00:01,15.08822514,0.000177,53.2164,67.9046,55.5362,144.0711,0.0001721999999999,2.452e-05,0.0,0 STARLINK-3296,1 50168U 21125N   22126.58334491  .00002452  00000-0  17220-3 0  9999,2 50168  53.2164  67.9046 0001770  55.5362 144.0711 15.08822514  3609,6917.934,95.439,541.023,538.5740000000002,0.0
50168.0,STARLINK-3296,PAYLOAD,2022-05-07 06:00:02,15.08819248,0.0001938,53.2163,64.9136,52.2271,170.6169,0.0027954,0.00044457,0.0,0 STARLINK-3296,1 50168U 21125N   22127.25002315  .00044457  00000-0  27954-2 0  9996,2 50168  53.2163  64.9136 0001938  52.2271 170.6169 15.08819248 21785,6917.944,95.439,541.15,538.4680000000002,0.0
50168.0,STARLINK-3296,PAYLOAD,2022-05-07 14:00:01,15.08839273,0.000175,53.2161,63.4155,55.7184,178.6615,-0.0011909,-0.00019191,0.0,0 STARLINK-3296,1 50168U 21125N   22127.58334491 -.00019191  00000-0 -11909-2 0  9997,2 50168  53.2161  63.4155 0001750  55.7184 178.6615 15.08839273  3606,6917.8830000000025,95.438,540.9580000000002,538.5369999999998,0.0
50168.0,STARLINK-3296,PAYLOAD,2022-05-07 22:00:00,15.08844956,0.0001781999999999,53.2162,61.9194,58.1685,187.7925,-0.0006201,-0.00010145,0.0,0 STARLINK-3296,1 50168U 21125N   22127.91667824 -.00010145  00000-0 -62010-3 0  9993,2 50168  53.2162  61.9194 0001782  58.1685 187.7925 15.08844956 21880,6917.865,95.437,540.9630000000002,538.497,0.0
50168.0,STARLINK-3296,PAYLOAD,2022-05-08 14:00:01,15.08821709,0.0001716,53.2162,58.9261,54.2607,214.898,0.0003948,5.998e-05,0.0,0 STARLINK-3296,1 50168U 21125N   22128.58334491  .00005998  00000-0  39480-3 0  9991,2 50168  53.2162  58.9261 0001716  54.2607 214.8980 15.08821709  3591,6917.936,95.439,540.988,538.614,0.0
50168.0,STARLINK-3296,PAYLOAD,2022-05-08 22:00:00,15.08844086,0.000177,53.2163,57.4302,56.3139,224.4145,-0.00080133,-0.0001302,0.0,0 STARLINK-3296,1 50168U 21125N   22128.91667824 -.00013020  00000-0 -80133-3 0  9995,2 50168  53.2163  57.4302 0001770  56.3139 224.4145 15.08844086  3600,6917.868,95.437,540.957,538.508,0.0
50168.0,STARLINK-3296,PAYLOAD,2022-05-09 06:00:00,15.08819006,0.0001903,53.2163,55.9351,50.0118,242.3187,0.0035441,0.00056537,0.0,0 STARLINK-3296,1 50168U 21125N   22129.25001157  .00056537  00000-0  35441-2 0  9993,2 50168  53.2163  55.9351 0001903  50.0118 242.3187 15.08819006 22085,6917.945,95.439,541.126,538.493,0.0
50168.0,STARLINK-3296,PAYLOAD,2022-05-09 14:00:01,15.08847276,0.0001728,53.2166,54.4367,54.9156,249.0771,0.0003498,5.285e-05,0.0,0 STARLINK-3296,1 50168U 21125N   22129.58335648  .00005285  00000-0  34980-3 0  9996,2 50168  53.2166  54.4367 0001728  54.9156 249.0771 15.08847276  3609,6917.858,95.437,540.919,538.528,0.0
50168.0,STARLINK-3296,PAYLOAD,2022-05-09 22:00:00,15.08859399,0.0001751999999999,53.2168,52.9408,54.9418,260.6012,-0.0014103,-0.00022675,0.0,0 STARLINK-3296,1 50168U 21125N   22129.91667824 -.00022675  00000-0 -14103-2 0  9995,2 50168  53.2168  52.9408 0001752  54.9418 260.6012 15.08859399  3592,6917.821,95.436,540.898,538.474,0.0
50168.0,STARLINK-3296,PAYLOAD,2022-05-10 00:00:00,15.08851877,0.0001793,53.2167,52.5672,52.5547,355.89300000000014,-0.00081133,-0.00013182,0.0,0 STARLINK-3296,1 50168U 21125N   22130.00001157 -.00013182  00000-0 -81133-3 0  9999,2 50168  53.2167  52.5672 0001793  52.5547 355.8930 15.08851877 22200,6917.844,95.437,540.9490000000002,538.469,0.0
50168.0,STARLINK-3296,PAYLOAD,2022-05-10 14:00:01,15.08822412,0.0001663,53.2171,49.9474,53.4797,285.2734,0.00026939,4e-05,0.0,0 STARLINK-3296,1 50168U 21125N   22130.58334491  .00004000  00000-0  26939-3 0  9992,2 50168  53.2171  49.9474 0001663  53.4797 285.2734 15.08822412  3590,6917.934,95.439,540.95,538.649,0.0
50168.0,STARLINK-3296,PAYLOAD,2022-05-10 18:00:00,15.08819481,0.0001712,53.2172,49.1974,54.4002,110.1332,-0.0021923,-0.0003498999999999,0.0,0 STARLINK-3296,1 50168U 21125N   22130.75001157 -.00034990  00000-0 -21923-2 0  9991,2 50168  53.2172  49.1974 0001712  54.4002 110.1332 15.08819481 22316,6917.943,95.439,540.992,538.624,0.0
50168.0,STARLINK-3296,PAYLOAD,2022-05-11 22:00:00,15.08853838,0.0001624,53.2178,43.9627,51.5287,333.5786,-0.0011573,-0.00018666,0.0,0 STARLINK-3296,1 50168U 21125N   22131.91667824 -.00018666  00000-0 -11573-2 0  9991,2 50168  53.2178  43.9627 0001624  51.5287 333.5786 15.08853838 22491,6917.8380000000025,95.437,540.827,538.58,0.0
50168.0,STARLINK-3296,PAYLOAD,2022-05-12 14:00:01,15.08812615,0.0001617,53.2176,40.969,56.7657,351.5588,0.0029306,0.00046626,0.0,0 STARLINK-3296,1 50168U 21125N   22132.58334491  .00046626  00000-0  29306-2 0  9994,2 50168  53.2176  40.9690 0001617  56.7657 351.5588 15.08812615  1301,6917.964,95.439,540.948,538.71,0.0
50168.0,STARLINK-3296,PAYLOAD,2022-05-12 20:00:01,15.08855637,0.0001661,53.2179,39.8474,58.0071,268.997,-0.00023951,-4.1e-05,0.0,0 STARLINK-3296,1 50168U 21125N   22132.83334491 -.00004100  00000-0 -23951-3 0  9996,2 50168  53.2179  39.8474 0001661  58.0071 268.9970 15.08855637 22620,6917.833000000001,95.437,540.847,538.549,0.0
